SAUDISAT 1C (SO-50)     
1 27607U 02058C   26068.61742404  .00002222  00000+0  27919-3 0  9995
2 27607  64.5524  76.9957 0075248 280.7497  78.5144 14.82783142249695
STARLINK-5328           
1 55657U 23021AF  26068.64361641 -.00000433  00000+0 -28470-4 0  9995
2 55657  70.0005 164.7339 0003409 271.1096  88.9673 14.98333056169275
